1 42017U 17008BX  20350.43937927  .00002751  00000-0  10582-3 0  9998
2 42017  97.3408  55.2163 0007272  52.2253 307.9644 15.27211820213161